GLOBALSTAR M069         
1 31573U 07020C   26198.27290565 -.00000104  00000+0 -10149-3 0  9994
2 31573  52.0009 166.9710 0001598 214.9087 283.3106 12.23472257882489
GLOBALSTAR M072         
1 31574U 07020D   26198.27779275 -.00000079  00000+0  65282-4 0  9994
2 31574  51.9950  20.1360 0001647  39.5761 150.9888 11.91658839878566
GLOBALSTAR M066         
1 32265U 07048C   26197.56939037 -.00000046  00000+0  40679-3 0  9993
2 32265  51.9609 333.5655 0005586 104.4817 336.2278 12.30389593863842
GLOBALSTAR M079         
1 37188U 10054A   26198.25056810 -.00000109  00000+0 -30173-4 0  9999
2 37188  52.0056  17.1527 0001129  81.1766  90.7351 12.62266424726344
GLOBALSTAR M074         
1 37189U 10054B   26197.70268517 -.00000105  00000+0 -92775-5 0  9991
2 37189  52.0033  18.0813 0000866  94.8333 346.1544 12.62262050726888
GLOBALSTAR M076         
1 37190U 10054C   26197.90597635 -.00000088  00000+0  85623-4 0  9993
2 37190  52.0046  17.6683 0001100  94.5452  70.5836 12.62262469726623
GLOBALSTAR M077         
1 37191U 10054D   26198.19777797 -.00000103  00000+0 -46617-3 0  9993
2 37191  51.9959 103.1240 0002226 228.9838 299.4155 11.67547328724646
GLOBALSTAR M075         
1 37192U 10054E   26198.07724782 -.00000091  00000+0  73278-4 0  9996
2 37192  51.9955  59.1841 0000774  67.3811  96.9658 12.62267872725718
GLOBALSTAR M073         
1 37193U 10054F   26197.58424689 -.00000101  00000+0  14331-4 0  9992
2 37193  52.0082 334.8088 0001049  98.2466 343.0539 12.62266918727641
GLOBALSTAR M083         
1 37739U 11033A   26198.21830752 -.00000075  00000+0  16115-3 0  9990
2 37739  51.9862 281.0676 0000727 108.7385 276.5000 12.62264256696748
GLOBALSTAR M088         
1 37740U 11033B   26198.27221347 -.00000115  00000+0 -62679-4 0  9995
2 37740  52.0189 187.4019 0000078  61.0274 328.0142 12.62269509692293
GLOBALSTAR M091         
1 37741U 11033C   26198.31489340 -.00000108  00000+0 -25476-4 0  9996
2 37741  51.9982 150.1928 0000480  28.5497 135.1036 12.62264236693080
GLOBALSTAR M085         
1 37742U 11033D   26198.22300495 -.00000084  00000+0  11122-3 0  9994
2 37742  52.0125 101.7911 0000824  44.3932 121.5115 12.62264379693588
GLOBALSTAR M081         
1 37743U 11033E   26198.25162919 -.00000092  00000+0  63087-4 0  9992
2 37743  51.9956 104.1057 0000713  57.4683 118.4316 12.62265286693735
GLOBALSTAR M089         
1 37744U 11033F   26198.05087211 -.00000093  00000+0  62280-4 0  9997
2 37744  51.9937  58.8701 0000702  91.0766  73.2268 12.62267575694558
GLOBALSTAR M084         
1 38040U 11080A   26198.26926888 -.00000080  00000+0  13373-3 0  9998
2 38040  52.0018 285.7040 0000773 133.3605 243.6392 12.62263578672564
