{"fetched_at":"2026-07-17T17:37:48.565Z","source":"https://celestrak.org/NORAD/elements/gp.php?GROUP=globalstar&FORMAT=JSON","constellation":"globalstar","records":[{"OBJECT_NAME":"GLOBALSTAR M069","OBJECT_ID":"2007-020C","EPOCH":"2026-07-17T06:32:59.048160","CLASSIFICATION_TYPE":"U","MEAN_MOTION":12.23472257,"ECCENTRICITY":0.00015988,"INCLINATION":52.0009,"RA_OF_ASC_NODE":166.971,"ARG_OF_PERICENTER":214.9087,"MEAN_ANOMALY":283.3106,"EPHEMERIS_TYPE":0,"NORAD_CAT_ID":31573,"ELEMENT_SET_NO":999,"REV_AT_EPOCH":88248,"BSTAR":-0.00010149402,"MEAN_MOTION_DOT":-0.00000104,"MEAN_MOTION_DDOT":0},{"OBJECT_NAME":"GLOBALSTAR M072","OBJECT_ID":"2007-020D","EPOCH":"2026-07-17T06:40:01.293600","CLASSIFICATION_TYPE":"U","MEAN_MOTION":11.91658839,"ECCENTRICITY":0.00016473,"INCLINATION":51.995,"RA_OF_ASC_NODE":20.136,"ARG_OF_PERICENTER":39.5761,"MEAN_ANOMALY":150.9888,"EPHEMERIS_TYPE":0,"NORAD_CAT_ID":31574,"ELEMENT_SET_NO":999,"REV_AT_EPOCH":87856,"BSTAR":0.000065281965,"MEAN_MOTION_DOT":-7.9e-7,"MEAN_MOTION_DDOT":0},{"OBJECT_NAME":"GLOBALSTAR M066","OBJECT_ID":"2007-048C","EPOCH":"2026-07-16T13:39:55.327968","CLASSIFICATION_TYPE":"U","MEAN_MOTION":12.30389593,"ECCENTRICITY":0.00055863,"INCLINATION":51.9609,"RA_OF_ASC_NODE":333.5655,"ARG_OF_PERICENTER":104.4817,"MEAN_ANOMALY":336.2278,"EPHEMERIS_TYPE":0,"NORAD_CAT_ID":32265,"ELEMENT_SET_NO":999,"REV_AT_EPOCH":86384,"BSTAR":0.00040679134,"MEAN_MOTION_DOT":-4.6e-7,"MEAN_MOTION_DDOT":0},{"OBJECT_NAME":"GLOBALSTAR M079","OBJECT_ID":"2010-054A","EPOCH":"2026-07-17T06:00:49.083840","CLASSIFICATION_TYPE":"U","MEAN_MOTION":12.62266424,"ECCENTRICITY":0.00011292,"INCLINATION":52.0056,"RA_OF_ASC_NODE":17.1527,"ARG_OF_PERICENTER":81.1766,"MEAN_ANOMALY":90.7351,"EPHEMERIS_TYPE":0,"NORAD_CAT_ID":37188,"ELEMENT_SET_NO":999,"REV_AT_EPOCH":72634,"BSTAR":-0.000030172527,"MEAN_MOTION_DOT":-0.00000109,"MEAN_MOTION_DDOT":0},{"OBJECT_NAME":"GLOBALSTAR M074","OBJECT_ID":"2010-054B","EPOCH":"2026-07-16T16:51:51.998688","CLASSIFICATION_TYPE":"U","MEAN_MOTION":12.6226205,"ECCENTRICITY":0.00008662,"INCLINATION":52.0033,"RA_OF_ASC_NODE":18.0813,"ARG_OF_PERICENTER":94.8333,"MEAN_ANOMALY":346.1544,"EPHEMERIS_TYPE":0,"NORAD_CAT_ID":37189,"ELEMENT_SET_NO":999,"REV_AT_EPOCH":72688,"BSTAR":-0.000009277507,"MEAN_MOTION_DOT":-0.00000105,"MEAN_MOTION_DDOT":0},{"OBJECT_NAME":"GLOBALSTAR M076","OBJECT_ID":"2010-054C","EPOCH":"2026-07-16T21:44:36.356640","CLASSIFICATION_TYPE":"U","MEAN_MOTION":12.62262469,"ECCENTRICITY":0.00011007,"INCLINATION":52.0046,"RA_OF_ASC_NODE":17.6683,"ARG_OF_PERICENTER":94.5452,"MEAN_ANOMALY":70.5836,"EPHEMERIS_TYPE":0,"NORAD_CAT_ID":37190,"ELEMENT_SET_NO":999,"REV_AT_EPOCH":72662,"BSTAR":0.000085622977,"MEAN_MOTION_DOT":-8.8e-7,"MEAN_MOTION_DDOT":0},{"OBJECT_NAME":"GLOBALSTAR M077","OBJECT_ID":"2010-054D","EPOCH":"2026-07-17T04:44:48.016608","CLASSIFICATION_TYPE":"U","MEAN_MOTION":11.67547328,"ECCENTRICITY":0.00022269,"INCLINATION":51.9959,"RA_OF_ASC_NODE":103.124,"ARG_OF_PERICENTER":228.9838,"MEAN_ANOMALY":299.4155,"EPHEMERIS_TYPE":0,"NORAD_CAT_ID":37191,"ELEMENT_SET_NO":999,"REV_AT_EPOCH":72464,"BSTAR":-0.0004661651,"MEAN_MOTION_DOT":-0.00000103,"MEAN_MOTION_DDOT":0},{"OBJECT_NAME":"GLOBALSTAR M075","OBJECT_ID":"2010-054E","EPOCH":"2026-07-17T01:51:14.211648","CLASSIFICATION_TYPE":"U","MEAN_MOTION":12.62267872,"ECCENTRICITY":0.00007741,"INCLINATION":51.9955,"RA_OF_ASC_NODE":59.1841,"ARG_OF_PERICENTER":67.3811,"MEAN_ANOMALY":96.9658,"EPHEMERIS_TYPE":0,"NORAD_CAT_ID":37192,"ELEMENT_SET_NO":999,"REV_AT_EPOCH":72571,"BSTAR":0.000073277977,"MEAN_MOTION_DOT":-9.1e-7,"MEAN_MOTION_DDOT":0},{"OBJECT_NAME":"GLOBALSTAR M073","OBJECT_ID":"2010-054F","EPOCH":"2026-07-16T14:01:18.931296","CLASSIFICATION_TYPE":"U","MEAN_MOTION":12.62266918,"ECCENTRICITY":0.00010493,"INCLINATION":52.0082,"RA_OF_ASC_NODE":334.8088,"ARG_OF_PERICENTER":98.2466,"MEAN_ANOMALY":343.0539,"EPHEMERIS_TYPE":0,"NORAD_CAT_ID":37193,"ELEMENT_SET_NO":999,"REV_AT_EPOCH":72764,"BSTAR":0.000014330601,"MEAN_MOTION_DOT":-0.00000101,"MEAN_MOTION_DDOT":0},{"OBJECT_NAME":"GLOBALSTAR M083","OBJECT_ID":"2011-033A","EPOCH":"2026-07-17T05:14:21.769728","CLASSIFICATION_TYPE":"U","MEAN_MOTION":12.62264256,"ECCENTRICITY":0.00007272,"INCLINATION":51.9862,"RA_OF_ASC_NODE":281.0676,"ARG_OF_PERICENTER":108.7385,"MEAN_ANOMALY":276.5,"EPHEMERIS_TYPE":0,"NORAD_CAT_ID":37739,"ELEMENT_SET_NO":999,"REV_AT_EPOCH":69674,"BSTAR":0.00016114871,"MEAN_MOTION_DOT":-7.5e-7,"MEAN_MOTION_DDOT":0},{"OBJECT_NAME":"GLOBALSTAR M088","OBJECT_ID":"2011-033B","EPOCH":"2026-07-17T06:31:59.243808","CLASSIFICATION_TYPE":"U","MEAN_MOTION":12.62269509,"ECCENTRICITY":0.0000078,"INCLINATION":52.0189,"RA_OF_ASC_NODE":187.4019,"ARG_OF_PERICENTER":61.0274,"MEAN_ANOMALY":328.0142,"EPHEMERIS_TYPE":0,"NORAD_CAT_ID":37740,"ELEMENT_SET_NO":999,"REV_AT_EPOCH":69229,"BSTAR":-0.000062678982,"MEAN_MOTION_DOT":-0.00000115,"MEAN_MOTION_DDOT":0},{"OBJECT_NAME":"GLOBALSTAR M091","OBJECT_ID":"2011-033C","EPOCH":"2026-07-17T07:33:26.789760","CLASSIFICATION_TYPE":"U","MEAN_MOTION":12.62264236,"ECCENTRICITY":0.00004806,"INCLINATION":51.9982,"RA_OF_ASC_NODE":150.1928,"ARG_OF_PERICENTER":28.5497,"MEAN_ANOMALY":135.1036,"EPHEMERIS_TYPE":0,"NORAD_CAT_ID":37741,"ELEMENT_SET_NO":999,"REV_AT_EPOCH":69308,"BSTAR":-0.000025476195,"MEAN_MOTION_DOT":-0.00000108,"MEAN_MOTION_DDOT":0},{"OBJECT_NAME":"GLOBALSTAR M085","OBJECT_ID":"2011-033D","EPOCH":"2026-07-17T05:21:07.627680","CLASSIFICATION_TYPE":"U","MEAN_MOTION":12.62264379,"ECCENTRICITY":0.00008245,"INCLINATION":52.0125,"RA_OF_ASC_NODE":101.7911,"ARG_OF_PERICENTER":44.3932,"MEAN_ANOMALY":121.5115,"EPHEMERIS_TYPE":0,"NORAD_CAT_ID":37742,"ELEMENT_SET_NO":999,"REV_AT_EPOCH":69358,"BSTAR":0.00011122335,"MEAN_MOTION_DOT":-8.4e-7,"MEAN_MOTION_DDOT":0},{"OBJECT_NAME":"GLOBALSTAR M081","OBJECT_ID":"2011-033E","EPOCH":"2026-07-17T06:02:20.762016","CLASSIFICATION_TYPE":"U","MEAN_MOTION":12.62265286,"ECCENTRICITY":0.00007138,"INCLINATION":51.9956,"RA_OF_ASC_NODE":104.1057,"ARG_OF_PERICENTER":57.4683,"MEAN_ANOMALY":118.4316,"EPHEMERIS_TYPE":0,"NORAD_CAT_ID":37743,"ELEMENT_SET_NO":999,"REV_AT_EPOCH":69373,"BSTAR":0.000063087191,"MEAN_MOTION_DOT":-9.2e-7,"MEAN_MOTION_DDOT":0},{"OBJECT_NAME":"GLOBALSTAR M089","OBJECT_ID":"2011-033F","EPOCH":"2026-07-17T01:13:15.350304","CLASSIFICATION_TYPE":"U","MEAN_MOTION":12.62267575,"ECCENTRICITY":0.00007022,"INCLINATION":51.9937,"RA_OF_ASC_NODE":58.8701,"ARG_OF_PERICENTER":91.0766,"MEAN_ANOMALY":73.2268,"EPHEMERIS_TYPE":0,"NORAD_CAT_ID":37744,"ELEMENT_SET_NO":999,"REV_AT_EPOCH":69455,"BSTAR":0.000062279806,"MEAN_MOTION_DOT":-9.3e-7,"MEAN_MOTION_DDOT":0},{"OBJECT_NAME":"GLOBALSTAR M084","OBJECT_ID":"2011-080A","EPOCH":"2026-07-17T06:27:44.831232","CLASSIFICATION_TYPE":"U","MEAN_MOTION":12.62263578,"ECCENTRICITY":0.00007737,"INCLINATION":52.0018,"RA_OF_ASC_NODE":285.704,"ARG_OF_PERICENTER":133.3605,"MEAN_ANOMALY":243.6392,"EPHEMERIS_TYPE":0,"NORAD_CAT_ID":38040,"ELEMENT_SET_NO":999,"REV_AT_EPOCH":67256,"BSTAR":0.00013373362,"MEAN_MOTION_DOT":-8e-7,"MEAN_MOTION_DDOT":0}]}
